{"type": "FeatureCollection", "features": [ {"type": "Feature", "properties": {"norad_id": 40230, "name": "COSMOS 2251 DEB", "group": "cosmos-2251-debris", "lat": 53.56958437190833, "lon": -4.106742650003956, "alt_km": 731.1332212895068, "timestamp": "2025-12-27T18:38:03.876259+00:00", "meta": {"OBJECT_NAME": "COSMOS 2251 DEB", "OBJECT_ID": "1993-036BVK", "EPOCH": "2025-12-20T07:41:52.070784", "MEAN_MOTION": 14.49354869, "ECCENTRICITY": 0.00189754, "INCLINATION": 74.0435, "RA_OF_ASC_NODE": 212.675, "ARG_OF_PERICENTER": 270.0639, "MEAN_ANOMALY": 207.3635, "EPHEMERIS_TYPE": 0, "CLASSIFICATION_TYPE": "U", "NORAD_CAT_ID": 40230, "ELEMENT_SET_NO": 999, "REV_AT_EPOCH": 59081, "BSTAR": 0.00041501757, "MEAN_MOTION_DOT": 1.562e-05, "MEAN_MOTION_DDOT": 0}, "tle": {"line1": "1 40230U 93036BVK 25354.32074156  .00001562  00000+0  41502-3 0  9995", "line2": "2 40230  74.0435 212.6750 0018975 270.0639 207.3635 14.49354869590816"}}, "geometry": {"type": "Point", "coordinates": [-4.106742650003956, 53.56958437190833]}}, {"type": "Feature", "properties": {"norad_id": 40233, "name": "COSMOS 2251 DEB", "group": "cosmos-2251-debris", "lat": 71.78554984292013, "lon": 135.40960757561905, "alt_km": 677.0168719872863, "timestamp": "2025-12-27T18:38:03.876269+00:00", "meta": {"OBJECT_NAME": "COSMOS 2251 DEB", "OBJECT_ID": "1993-036BVN", "EPOCH": "2025-12-25T05:21:19.677024", "MEAN_MOTION": 14.58549928, "ECCENTRICITY": 0.004418, "INCLINATION": 73.9403, "RA_OF_ASC_NODE": 79.204, "ARG_OF_PERICENTER": 151.4765, "MEAN_ANOMALY": 208.8831, "EPHEMERIS_TYPE": 0, "CLASSIFICATION_TYPE": "U", "NORAD_CAT_ID": 40233, "ELEMENT_SET_NO": 999, "REV_AT_EPOCH": 59319, "BSTAR": 0.0011641, "MEAN_MOTION_DOT": 5.46e-05, "MEAN_MOTION_DDOT": 0}, "tle": {"line1": "1 40233U 93036BVN 25359.22314441  .00005460  00000+0  11641-2 0  9997", "line2": "2 40233  73.9403  79.2040 0044180 151.4765 208.8831 14.58549928593190"}}, "geometry": {"type": "Point", "coordinates": [135.40960757561905, 71.78554984292013]}}, {"type": "Feature", "properties": {"norad_id": 40236, "name": "COSMOS 2251 DEB", "group": "cosmos-2251-debris", "lat": 69.25972635243785, "lon": -111.3071889938146, "alt_km": 1235.6228792574611, "timestamp": "2025-12-27T18:38:03.876279+00:00", "meta": {"OBJECT_NAME": "COSMOS 2251 DEB", "OBJECT_ID": "1993-036BVR", "EPOCH": "2025-12-26T00:27:49.903776", "MEAN_MOTION": 13.24674998, "ECCENTRICITY": 0.0537395, "INCLINATION": 73.5332, "RA_OF_ASC_NODE": 122.8174, "ARG_OF_PERICENTER": 1.8954, "MEAN_ANOMALY": 358.4003, "EPHEMERIS_TYPE": 0, "CLASSIFICATION_TYPE": "U", "NORAD_CAT_ID": 40236, "ELEMENT_SET_NO": 999, "REV_AT_EPOCH": 53800, "BSTAR": 0.0010277, "MEAN_MOTION_DOT": 9.41e-06, "MEAN_MOTION_DDOT": 0}, "tle": {"line1": "1 40236U 93036BVR 25360.01932759  .00000941  00000+0  10277-2 0  9990", "line2": "2 40236  73.5332 122.8174 0537395   1.8954 358.4003 13.24674998538006"}}, "geometry": {"type": "Point", "coordinates": [-111.3071889938146, 69.25972635243785]}}, {"type": "Feature", "properties": {"norad_id": 40238, "name": "COSMOS 2251 DEB", "group": "cosmos-2251-debris", "lat": -32.39377390584048, "lon": -128.99588494895434, "alt_km": 1544.0808595994986, "timestamp": "2025-12-27T18:38:03.876289+00:00", "meta": {"OBJECT_NAME": "COSMOS 2251 DEB", "OBJECT_ID": "1993-036BVT", "EPOCH": "2025-12-24T09:50:08.146464", "MEAN_MOTION": 13.25148444, "ECCENTRICITY": 0.05498783, "INCLINATION": 73.9883, "RA_OF_ASC_NODE": 45.6762, "ARG_OF_PERICENTER": 15.0985, "MEAN_ANOMALY": 346.58, "EPHEMERIS_TYPE": 0, "CLASSIFICATION_TYPE": "U", "NORAD_CAT_ID": 40238, "ELEMENT_SET_NO": 999, "REV_AT_EPOCH": 54191, "BSTAR": 0.0017336803, "MEAN_MOTION_DOT": 1.683e-05, "MEAN_MOTION_DDOT": 0}, "tle": {"line1": "1 40238U 93036BVT 25358.40981651  .00001683  00000+0  17337-2 0  9995", "line2": "2 40238  73.9883  45.6762 0549878  15.0985 346.5800 13.25148444541918"}}, "geometry": {"type": "Point", "coordinates": [-128.99588494895434, -32.39377390584048]}}, {"type": "Feature", "properties": {"norad_id": 40239, "name": "COSMOS 2251 DEB", "group": "cosmos-2251-debris", "lat": -45.195216869670745, "lon": 83.79805781900363, "alt_km": 729.04578346583, "timestamp": "2025-12-27T18:38:03.876299+00:00", "meta": {"OBJECT_NAME": "COSMOS 2251 DEB", "OBJECT_ID": "1993-036BVU", "EPOCH": "2025-12-23T23:20:18.364128", "MEAN_MOTION": 14.62039549, "ECCENTRICITY": 0.008546, "INCLINATION": 74.0319, "RA_OF_ASC_NODE": 254.3246, "ARG_OF_PERICENTER": 2.8488, "MEAN_ANOMALY": 11.8068, "EPHEMERIS_TYPE": 0, "CLASSIFICATION_TYPE": "U", "NORAD_CAT_ID": 40239, "ELEMENT_SET_NO": 999, "REV_AT_EPOCH": 59775, "BSTAR": 0.00037675, "MEAN_MOTION_DOT": 1.96e-05, "MEAN_MOTION_DDOT": 0}, "tle": {"line1": "1 40239U 93036BVU 25357.97243477  .00001960  00000+0  37675-3 0  9990", "line2": "2 40239  74.0319 254.3246 0085460   2.8488  11.8068 14.62039549597753"}}, "geometry": {"type": "Point", "coordinates": [83.79805781900363, -45.195216869670745]}}, {"type": "Feature", "properties": {"norad_id": 40792, "name": "COSMOS 2251 DEB", "group": "cosmos-2251-debris", "lat": -23.26478974137299, "lon": 11.36444724203629, "alt_km": 681.5267573714973, "timestamp": "2025-12-27T18:38:03.876309+00:00", "meta": {"OBJECT_NAME": "COSMOS 2251 DEB", "OBJECT_ID": "1993-036BVV", "EPOCH": "2025-12-26T10:19:56.254080", "MEAN_MOTION": 14.6770507, "ECCENTRICITY": 0.0014497, "INCLINATION": 74.0454, "RA_OF_ASC_NODE": 21.0269, "ARG_OF_PERICENTER": 120.8372, "MEAN_ANOMALY": 306.5345, "EPHEMERIS_TYPE": 0, "CLASSIFICATION_TYPE": "U", "NORAD_CAT_ID": 40792, "ELEMENT_SET_NO": 999, "REV_AT_EPOCH": 63385, "BSTAR": 0.00091958, "MEAN_MOTION_DOT": 5.217e-05, "MEAN_MOTION_DDOT": 0}, "tle": {"line1": "1 40792U 93036BVV 25360.43051220  .00005217  00000+0  91958-3 0  9995", "line2": "2 40792  74.0454  21.0269 0014497 120.8372 306.5345 14.67705070633854"}}, "geometry": {"type": "Point", "coordinates": [11.36444724203629, -23.26478974137299]}}, {"type": "Feature", "properties": {"norad_id": 40794, "name": "COSMOS 2251 DEB", "group": "cosmos-2251-debris", "lat": -15.070124211272955, "lon": 89.43194987647517, "alt_km": 589.5529596491533, "timestamp": "2025-12-27T18:38:03.876319+00:00", "meta": {"OBJECT_NAME": "COSMOS 2251 DEB", "OBJECT_ID": "1993-036BVX", "EPOCH": "2025-12-24T01:30:51.702624", "MEAN_MOTION": 14.94031865, "ECCENTRICITY": 0.00097276, "INCLINATION": 73.9771, "RA_OF_ASC_NODE": 101.3724, "ARG_OF_PERICENTER": 255.1473, "MEAN_ANOMALY": 282.9356, "EPHEMERIS_TYPE": 0, "CLASSIFICATION_TYPE": "U", "NORAD_CAT_ID": 40794, "ELEMENT_SET_NO": 999, "REV_AT_EPOCH": 62093, "BSTAR": 0.0045652942, "MEAN_MOTION_DOT": 0.00049073, "MEAN_MOTION_DDOT": 0}, "tle": {"line1": "1 40794U 93036BVX 25358.06309841  .00049073  00000+0  45653-2 0  9996", "line2": "2 40794  73.9771 101.3724 0009727 255.1473 282.9356 14.94031865620936"}}, "geometry": {"type": "Point", "coordinates": [89.43194987647517, -15.070124211272955]}}, {"type": "Feature", "properties": {"norad_id": 40796, "name": "COSMOS 2251 DEB", "group": "cosmos-2251-debris", "lat": 71.40252373423046, "lon": -125.98767501251501, "alt_km": 648.7112638081644, "timestamp": "2025-12-27T18:38:03.876330+00:00", "meta": {"OBJECT_NAME": "COSMOS 2251 DEB", "OBJECT_ID": "1993-036BVZ", "EPOCH": "2025-12-26T16:33:35.172288", "MEAN_MOTION": 14.81907149, "ECCENTRICITY": 0.00559242, "INCLINATION": 74.013, "RA_OF_ASC_NODE": 114.5925, "ARG_OF_PERICENTER": 248.8524, "MEAN_ANOMALY": 177.4514, "EPHEMERIS_TYPE": 0, "CLASSIFICATION_TYPE": "U", "NORAD_CAT_ID": 40796, "ELEMENT_SET_NO": 999, "REV_AT_EPOCH": 76365, "BSTAR": 0.0011252673, "MEAN_MOTION_DOT": 9.13e-05, "MEAN_MOTION_DDOT": 0}, "tle": {"line1": "1 40796U 93036BVZ 25360.68999042  .00009130  00000+0  11253-2 0  9996", "line2": "2 40796  74.0130 114.5925 0055924 248.8524 177.4514 14.81907149763658"}}, "geometry": {"type": "Point", "coordinates": [-125.98767501251501, 71.40252373423046]}}, {"type": "Feature", "properties": {"norad_id": 40797, "name": "COSMOS 2251 DEB", "group": "cosmos-2251-debris", "lat": -25.099961966018938, "lon": 56.206810732712874, "alt_km": 486.30952818277274, "timestamp": "2025-12-27T18:38:03.876340+00:00", "meta": {"OBJECT_NAME": "COSMOS 2251 DEB", "OBJECT_ID": "1993-036BWA", "EPOCH": "2025-12-27T10:48:24.706080", "MEAN_MOTION": 15.11668045, "ECCENTRICITY": 0.0072507, "INCLINATION": 73.92, "RA_OF_ASC_NODE": 64.652, "ARG_OF_PERICENTER": 332.685, "MEAN_ANOMALY": 27.0535, "EPHEMERIS_TYPE": 0, "CLASSIFICATION_TYPE": "U", "NORAD_CAT_ID": 40797, "ELEMENT_SET_NO": 999, "REV_AT_EPOCH": 64866, "BSTAR": 0.0008209, "MEAN_MOTION_DOT": 0.00014869, "MEAN_MOTION_DDOT": 0}, "tle": {"line1": "1 40797U 93036BWA 25361.45028595  .00014869  00000+0  82090-3 0  9992", "line2": "2 40797  73.9200  64.6520 0072507 332.6850  27.0535 15.11668045648660"}}, "geometry": {"type": "Point", "coordinates": [56.206810732712874, -25.099961966018938]}}, {"type": "Feature", "properties": {"norad_id": 40799, "name": "COSMOS 2251 DEB", "group": "cosmos-2251-debris", "lat": -72.04711423302626, "lon": -49.39117954462009, "alt_km": 523.9897581717569, "timestamp": "2025-12-27T18:38:03.876350+00:00", "meta": {"OBJECT_NAME": "COSMOS 2251 DEB", "OBJECT_ID": "1993-036BWC", "EPOCH": "2025-12-26T10:58:52.007232", "MEAN_MOTION": 14.96790134, "ECCENTRICITY": 0.0119466, "INCLINATION": 73.9261, "RA_OF_ASC_NODE": 70.4321, "ARG_OF_PERICENTER": 309.4146, "MEAN_ANOMALY": 49.6507, "EPHEMERIS_TYPE": 0, "CLASSIFICATION_TYPE": "U", "NORAD_CAT_ID": 40799, "ELEMENT_SET_NO": 999, "REV_AT_EPOCH": 50182, "BSTAR": 0.00039326, "MEAN_MOTION_DOT": 5.163e-05, "MEAN_MOTION_DDOT": 0}, "tle": {"line1": "1 40799U 93036BWC 25360.45754638  .00005163  00000+0  39326-3 0  9998", "line2": "2 40799  73.9261  70.4321 0119466 309.4146  49.6507 14.96790134501821"}}, "geometry": {"type": "Point", "coordinates": [-49.39117954462009, -72.04711423302626]}}]}